STREET,CITY,STATE,ZIPCODE
26600 Agoura Rd. Suite 110,Calabasas,CA,91302
2811 Woodlyn Rd.,Pasadena,CA,91104
2986 New York Dr.,Pasadena,CA,91107
252 W. Mountain View St.,Altadena,CA,91001
1327 Foothill Blvd.,La Canada,CA,91011
13436 Saticoy St.,North Hollywood,CA,91605
4628 Briggs Ave.,La Cresenta,CA,91214
13175 N Mount Wilson Red Box Rd,Altadena,CA,91001
3916 Dunsmore Ave.,La Crescenta,CA,91214
10179 Glenoaks Blvd.,Sun Valley,CA,91352
12653 Osborne St.,Pacoima,CA,91331
22201 Big Pines Hwy.,Wrightwood,CA,92397
21190 Centre Pointe Pkwy,Santa Clarita,CA,91350
23757 Valencia Blvd.,Santa Clarita,CA,91355
23757 Valencia Blvd.,Santa Clarita,CA,91350
23757 Valencia Blvd.,Santa Clarita,CA,91355
17931 Sierra Hwy.,Canyon Country,CA,91351
27624 W. Parker Rd.,Castaic,CA,91384
27500 Angeles Forest Hwy.,Palmdale,CA,93550
8505 E. Avenue T,Littlerock,CA,93543
38126 N. Sierra Hwy.,Palmdale,CA,93550
38126 N. Sierra Hwy.,Palmdale,CA,93550
38126 N. Sierra Hwy.,Palmdale,CA,93550
38126 N. Sierra Hwy.,Palmdale,CA,93550
38126 N. Sierra Hwy.,Palmdale,CA,93550
38126 N. Sierra Hwy.,Palmdale,CA,93550
35100 San Francisquito Cyn Rd.,Saugus,CA,91390
35100 San Francisquito Cyn Rd.,Saugus,CA,91390
4859 W. Avenue L-12,Quartz Hill,CA,93534
335 E. Avenue K-6 #A,Lancaster,CA,93535
17341 E. Avenue J,Lancaster,CA,93535
45712 N. Division St.,Lancaster,CA,93534
4555 W. Avenue G,Lancaster,CA,93536
49530 Gorman Post Rd.,Gorman,CA,93243
4801 East 3rd St.,Los Angeles,CA,90022
260 East Avenue K-8,Lancaster,CA,93535
161 Valencia St.,Glendora,CA,91741
118 Pony Express Rd.,San Dimas,CA,91773
45122 N. 70th ST.,Lancaster,CA,93535
4055 W. Marine Ave.,Lawndale,CA,90260
4801 East 3rd St.,Los Angeles,CA,90022
38250 N. Sierra Hwy.,Palmdale,CA,93550
23533 W. Civic Center Way,Malibu,CA,90265
13444 Saticoy St.,North Hollywood,CA,91605
5525 E. Imperial Hwy.,South Gate,CA,90280
881 Iroquois Ave.,Long Beach,CA,90815
881 Iroquois Ave.,Long Beach,CA,90815
24320 S. Narbonne Ave.,Lomita,CA,90717
24320 S. Narbonne Ave.,Lomita,CA,90717
24309 Walnut St.,Lomita,CA,90717
701 E. Carson St.,Carson,CA,90745
5050 Clark Ave.,Lakewood,CA,90712
615 Anita St.,Redondo Beach,CA,90278
18747 Clarkdale Ave.,Artesia,CA,90701
18125 Bloomfield Ave.,Cerritos,CA,90703
901 W. Alondra Blvd.,Compton,CA,90220
4055 W. Marine Ave.,Lawndale,CA,90260
14717 S. Burin Ave.,Lawndale,CA,90260
13700 S. La Mirada Blvd.,La Mirada,CA,90638
2155 El Segundo Blvd.,El Segundo,CA,90245
12015 Shoemaker Ave.,Santa Fe Spring,CA,90670
11282 S. Garfield Ave.,Downey,CA,90242
11282 S. Garfield Ave.,Downey,CA,90242
11282 S. Garfield Ave.,Downey,CA,90242
11282 S. Garfield Ave.,Downey,CA,90242
5525 E. Imperial Hwy.,South Gate,CA,90280
5525 E. Imperial Hwy.,South Gate,CA,90280
13671 Telegraph Rd.,Whittier,CA,90605
13523 Telegraph Rd.,Whittier,CA,90605
13523 Telegraph Rd.,Whittier,CA,90605
11710 Telegraph Rd.,Santa Fe Spring,CA,90607
2120 E. 90th St.,Los Angeles,CA,90002
5530 W. 83rd St.,Los Angeles,CA,90045
5530 W. 83rd St.,Los Angeles,CA,90045
5530 W. 83rd St.,Los Angeles,CA,90045
5530 W. 83rd St.,Los Angeles,CA,90045
5520 W. 83rd St.,Los Angeles,CA,90045
5530 W. 83rd St.,Los Angeles,CA,90045
1320 W. Imperial Hwy..,Los Angeles,CA,90044
2201 Diamond Bar Blvd.,Pomona,CA,91765
1129 E. 59th St.,Los Angeles,CA,90001
19865 E. Walnut Dr.,Walnut,CA,91789
2535 Commerce Way,Commerce,CA,90040
2535 Commerce Way,Commerce,CA,90040
1520 Stimson Ave.,Hacienda Height,CA,91745
9521 E. Beverly Blvd.,Pico Rivera,CA,90660
16005 E. Central Ave.,La Puente,CA,91744
16005 E. Central Ave.,La Puente,CA,91744
14959 E. Proctor Ave.,La Puente,CA,91744
4304 Eugene St.,Los Angeles,CA,90022
23533 W. Civic Center Way,Malibu,CA,90265
3637 Winter Canyon Rd.,Malibu,CA,90265
1525 Alcazar St.,Los Angeles,CA,90033
1537 Alcazar St.,Los Angeles,CA,90033
2275 Alcazar St.,Los Angeles,CA,90033
2275 Alcazar St.,Los Angeles,CA,90033
4233 N. Santa Anita Ave.,El Monte,CA,91731
900 S. Fremont Ave.,Alhambra,CA,91803
900 S Fremont Ave,Alhambra,CA,91803
14514 Central Ave.,Baldwin Park,CA,91706
14747 E. Ramona Blvd.,Baldwin Park,CA,91706
14747 E. Ramona Blvd.,Baldwin Park,CA,91706
14747 E. Ramona Blvd.,Baldwin Park,CA,91706
1615 McKinley Ave.,La Verne,CA,91750
5213 N. Encinita Ave.,Temple City,CA,91780
5050 N. Irwindale Ave.,Irwindale,CA,91707
9701 Las Tunas Dr.,Temple City,CA,91780
160 E. Longden Ave.,Irwindale,CA,91706
160 E. Longden Ave.,Irwindale,CA,91706
160 E. Longden Ave.,Irwindale,CA,91706
2849 S. Myrtle Ave.,Irwindale,CA,91706
29773 W. Mulholland Hwy.,Agoura,CA,91301
125 S. Baldwin Ave.,Arcadia,CA,91007
125 S. Baldwin Ave.,Arcadia,CA,91007
100 Universal City Plaza,Universal City,CA,91608
1600 Huntington Dr.,Duarte,CA,91010
13500 W. Fk San Gabr Cyn Rd,Monrovia,CA,91702
9700 N. San Gabriel Canyon,Azusa,CA,91702
353 S Van Norman Rd,Montebello,CA,90640
3800 S. Topanga Cyn Blvd.,Malibu,CA,90265
5150 N. Mount Baldy Rd.,Claremont,CA,91711
21190 Centre Pointe Pkwy,Santa Clarita,CA,91350
3863 Malibu Country Road,Malibu,CA,90265
17201 Elizabeth Lake Rd.,Lake Hughes,CA,93532
6338 Paseo Canyon Drive,Malibu,CA,90265
3620 Vista Pacifica Street,Malibu,CA,90265
4055 Marine Ave.,Lawndale,CA,90260
38126 N. Sierra Hwy.,Palmdale,CA,93550
14747 E. Ramona Blvd.,Baldwin Park,CA,91706
24309 Walnut St.,Lomita,CA,90717
2986 New York Dr.,Pasadena,CA,91107
1051 La Canada Verdugo Rd.,Pasadena,CA,91103
1 Puddingstone Dr.,San Dimas,CA,91773
9500 N. San Gabriel Canyon Rd.,Azusa,CA,91702
3331 San Dimas Canyon Rd.,La Verne,CA,91750
2230 N. Santa Anita Ave.,Monrovia,CA,91016
2600 Big Dalton Canyon Rd.,Glendora,CA,91741
15300 N. Pacoima Canyon Rd.,Sylmar,CA,91342
809 Big Tujunga Canyon Rd.,Sunland,CA,91040
2159 E. Sepulveda Blvd.,Carson,CA,90744
900 Brookside Ln,Sierra Madre,CA,91024
1300 N. Canyon Blvd.,Monrovia,CA,91016
5000 Webb Canyon Rd.,Claremont,CA,91711
4100 Cobal Canyon Rd.,Claremont,CA,91711
1800 San Dimas Canyon Rd.,San Dimas,CA,91773
22234 Placerita Canyon Rd.,Santa Clarita,CA,91321
28245 Avenue Crocker,Valencia,CA,91355
22310 Placerita Canyon Rd.,Newhall,CA,91321
900 S. Fremont Ave.,Alhambra,CA,91803
